OOV-CUBE (TUBSAT-30)    
1 60240U 24128F   26204.18460515  .00001732  00000+0  14199-3 0  9992
2 60240  61.9942 100.0399 0040077 141.8645 218.5295 15.02898344111520
CURIUM ONE              
1 60242U 24128H   26204.12887364  .00008180  00000+0  46686-3 0  9993
2 60242  61.9787  78.4315 0035368 138.4861 221.8931 15.12949421111892
ROBUSTA-3A (MEDITERRAN*)
1 60243U 24128J   26204.37882720  .00007411  00000+0  43416-3 0  9996
2 60243  61.9864  80.2188 0036870 135.7229 224.6827 15.12073047111892
CATSAT                  
1 60246U 24125J   26204.10412319  .00078592  00000+0  84981-3 0  9990
2 60246  97.2057  57.1864 0019101  54.9441 305.3606 15.63122964112994
GAOFEN-11 05            
1 60249U 24130A   26204.63409485  .00006036  00000+0  25512-3 0  9996
2 60249  97.3985 282.4417 0001579 279.3678  80.7380 15.23598466 91012
STARLINK-32138          
1 60255U 24131A   26204.11535343  .00004074  00000+0  14292-3 0  9993
2 60255  53.1606 142.6350 0001379  84.4579 275.6580 15.31714151112768
STARLINK-32212          
1 60256U 24131B   26204.56177697 -.00002005  00000+0 -48260-4 0  9994
2 60256  53.1625 141.1652 0001499  76.3846 283.7323 15.34380384112528
STARLINK-32166          
1 60257U 24131C   26204.52398270 -.00002686  00000+0 -68411-4 0  9998
2 60257  53.1625 141.6268 0001012  96.9829 263.1289 15.34396535112514
STARLINK-32200          
1 60258U 24131D   26204.24870887  .00000137  00000+0  15191-4 0  9991
2 60258  53.1629 142.7543 0001277  91.5477 268.5672 15.34395983112476
STARLINK-32207          
1 60259U 24131E   26204.58334491  .00017303  00000+0  52243-3 0  9996
2 60259  53.1580 141.3369 0000976 106.0648 233.7168 15.34377388  5868
STARLINK-32125          
1 60260U 24131F   26204.08976437 -.00000687  00000+0 -11067-4 0  9994
2 60260  53.1608 143.1880 0001599  88.6485 271.4699 15.30185259112457
STARLINK-32160          
1 60261U 24131G   26204.55546600  .00001729  00000+0  62320-4 0  9996
2 60261  53.1605 141.1077 0001739  76.6326 283.4871 15.34385934112572
STARLINK-32163          
1 60262U 24131H   26204.09204317 -.00002675  00000+0 -74511-4 0  9990
2 60262  53.1610 142.4876 0001515 110.4014 249.7150 15.31683116112466
STARLINK-32148          
1 60263U 24131J   26204.05945519  .00001327  00000+0  54516-4 0  9997
2 60263  53.1605 142.9928 0001248  66.0033 294.1099 15.31694974112509
STARLINK-32121          
1 60264U 24131K   26204.53920137 -.00001396  00000+0 -33243-4 0  9992
2 60264  53.1602 141.0114 0001182  92.8465 267.2671 15.31697515112575
STARLINK-32120          
1 60265U 24131L   26204.24440908  .00003263  00000+0  12534-3 0  9996
2 60265  53.1582 143.4303 0001684  99.4434 260.6757 15.29365728112516
STARLINK-32205          
1 60266U 24131M   26204.20861747 -.00000019  00000+0  11169-4 0  9992
2 60266  53.1601 142.5122 0001360  94.5492 265.5665 15.31701742112479
STARLINK-32158          
1 60267U 24131N   26204.58334491  .00022122  00000+0  66436-3 0  9999
2 60267  53.1600 140.8842 0000820  84.9618 115.7599 15.34379400  5863
STARLINK-32167          
1 60268U 24131P   26204.54805314  .00015626  00000+0  54028-3 0  9998
2 60268  53.1600 141.0769 0001591 123.7839 236.3313 15.30098678112514
STARLINK-32144          
1 60269U 24131Q   26204.55810260 -.00011192  00000+0 -34901-3 0  9990
2 60269  53.1604 140.4133 0001056 127.7756 232.3342 15.31736552112581
STARLINK-32211          
1 60270U 24131R   26204.14991813 -.00000366  00000+0  32069-6 0  9997
2 60270  53.1613 142.8620 0001908  51.0725 309.0448 15.34389943112468
STARLINK-32164          
1 60271U 24131S   26204.25712747 -.00000946  00000+0 -16878-4 0  9990
2 60271  53.1611 142.8012 0001000  94.3355 265.7762 15.34403818112379
STARLINK-32128          
1 60272U 24131T   26204.55962563 -.00000856  00000+0 -16765-4 0  9992
2 60272  53.1599 141.1345 0001393  82.1046 278.0113 15.30194349112529
STARLINK-32206          
1 60273U 24131U   26204.12475493 -.00000233  00000+0  42317-5 0  9998
2 60273  53.1630 143.4078 0001304  78.2549 281.8600 15.34394588112456
STARLINK-32155          
1 60274U 24131V   26204.20394235 -.00003474  00000+0 -10015-3 0  9991
2 60274  53.1615 142.4722 0001326 110.0669 250.0475 15.31725479112370
STARLINK-32152          
1 60275U 24131W   26204.22987918 -.00002777  00000+0 -81665-4 0  9995
2 60275  53.1593 142.6286 0001267  87.4161 272.6985 15.30197082112379
STARLINK-32154          
1 60276U 24131X   26204.55012781 -.00004480  00000+0 -13923-3 0  9993
2 60276  53.1611 141.0718 0001281 100.8208 259.2937 15.30197573112522
STARLINK-32135          
1 60277U 24131Y   26204.53862634 -.00000629  00000+0 -74684-5 0  9996
2 60277  53.1614 141.0009 0001594  97.6165 262.5019 15.34386557112525
STARLINK-32156          
1 60278U 24132A   26204.23092656 -.00018583  00000+0 -61518-3 0  9992
2 60278  53.1595 142.7639 0001038  37.1276 322.9796 15.30286453113531
STARLINK-32010          
1 60279U 24132B   26204.12437192 -.00002097  00000+0 -55814-4 0  9995
2 60279  53.1604 142.8183 0001372 112.5014 247.6133 15.31713295112309
STARLINK-32118          
1 60280U 24132C   26204.58334491  .00106171  00000+0  32105-2 0  9997
2 60280  53.1596 141.0476 0001584  92.3049  89.8600 15.33385973  5716
STARLINK-32038          
1 60281U 24132D   26204.54272501  .00020055  00000+0  61638-3 0  9997
2 60281  53.1625 141.1580 0002749 230.4221 129.6539 15.33707250112368
STARLINK-32113          
1 60282U 24132E   26204.21085431 -.00000001  00000+0  11102-4 0  9998
2 60282  53.1619 142.6416 0001192  75.6929 284.4206 15.34394056112314
STARLINK-32037          
1 60283U 24132F   26204.58334491  .00012864  00000+0  42571-3 0  9994
2 60283  53.1568 140.7777 0001451 109.1963 211.6365 15.31689456  5717
STARLINK-32123          
1 60284U 24132G   26204.18618304  .00002467  00000+0  95364-4 0  9996
2 60284  53.1613 130.4295 0001922  82.2878 277.8341 15.30212693112484
STARLINK-32122          
1 60285U 24132H   26204.54391124  .00011712  00000+0  38948-3 0  9992
2 60285  53.1588 141.1647 0001679 112.3542 247.7637 15.31625493112366
STARLINK-31656          
1 60286U 24132J   26203.36864023  .00103722  00000+0  33889-2 0  9996
2 60286  53.1589 146.6344 0001093  78.6551 281.4573 15.30922542112184
STARLINK-32114          
1 60287U 24132K   26204.20362412 -.00000244  00000+0  39060-5 0  9992
2 60287  53.1613 142.5974 0001627  62.0845 298.0321 15.31710725112312
STARLINK-31997          
1 60288U 24132L   26204.58334491  .00011467  00000+0  39889-3 0  9995
2 60288  53.1583 140.8846 0001299  99.3639 165.1358 15.30182375  5810
STARLINK-32000          
1 60289U 24132M   26204.10570252 -.00004761  00000+0 -14164-3 0  9991
2 60289  53.1604 142.7007 0001256  73.5763 286.5376 15.31724514112309
STARLINK-32141          
1 60290U 24132N   26204.58334491  .00019962  00000+0  60089-3 0  9992
2 60290  53.1601 141.0814 0000670  79.5254  86.2206 15.34371715  5869
STARLINK-32142          
1 60291U 24132P   26204.58334491  .00034339  00000+0  10241-2 0  9992
2 60291  53.1582 140.8058 0001678 103.8844 201.4353 15.34360262  5702
STARLINK-32149          
1 60292U 24132Q   26204.52088292 -.00001226  00000+0 -27754-4 0  9992
2 60292  53.1605 141.0248 0001181  93.6882 266.4255 15.31705479112363
STARLINK-32159          
1 60293U 24132R   26204.21196541 -.00001047  00000+0 -23217-4 0  9997
2 60293  53.1612 142.6457 0001347  86.6573 273.4582 15.30193958112312
STARLINK-32150          
1 60294U 24132S   26204.19929555 -.00003535  00000+0 -10211-3 0  9997
2 60294  53.1607 142.5716 0001328  72.6162 287.4985 15.31721908112317
STARLINK-32126          
1 60295U 24132T   26204.12004524 -.00000863  00000+0 -16040-4 0  9999
2 60295  53.1597 142.7851 0001210  84.8560 275.2580 15.31703402112309
STARLINK-32143          
1 60296U 24132U   26204.24120601  .00000555  00000+0  29632-4 0  9995
2 60296  53.1612 142.1232 0001413  84.7057 275.4106 15.31706875112325
STARLINK-32034          
1 60297U 24132V   26204.55312770 -.00001425  00000+0 -34170-4 0  9992
2 60297  53.1608 140.5126 0001346  99.5524 260.5630 15.31689847112374
STARLINK-32124          
1 60298U 24132W   26204.23653718  .00000157  00000+0  16838-4 0  9998
2 60298  53.1604 142.0944 0001396  70.4518 289.6634 15.31708442112326
STARLINK-32151          
1 60299U 24132X   26204.13125691 -.00001729  00000+0 -46271-4 0  9994
2 60299  53.1598 114.8723 0001652  83.8962 276.2227 15.30186390112698
STARLINK-32134          
1 60300U 24132Y   26204.13520154 -.00000131  00000+0  72667-5 0  9994
2 60300  53.1627 142.8848 0001302  99.8728 260.2422 15.34391080112308
STARLINK-11147 [DTC]    
1 60301U 24133A   26204.38492224 -.00000077  00000+0  42225-5 0  9995
2 60301  53.1593 197.5128 0001087  79.2496 280.8644 15.69706182115042
STARLINK-11128 [DTC]    
1 60302U 24133B   26204.25268385 -.00000285  00000+0  25062-5 0  9992
2 60302  53.1592 198.1074 0001100  93.5694 266.5449 15.69694754115027
STARLINK-11227 [DTC]    
1 60303U 24133C   26204.24777704 -.00001467  00000+0 -72575-5 0  9997
2 60303  53.1586 198.0744 0000873  73.1558 286.9555 15.69698871115100
STARLINK-11224 [DTC]    
1 60304U 24133D   26204.37020400 -.00001134  00000+0 -44970-5 0  9995
2 60304  53.1591 197.4126 0001260  96.5944 263.5218 15.69709257115123
STARLINK-11115 [DTC]    
1 60305U 24133E   26204.36529857  .00001050  00000+0  13523-4 0  9999
2 60305  53.1591 197.3803 0001191  84.7913 275.3241 15.69712040115045
STARLINK-11109 [DTC]    
1 60306U 24133F   26204.36039340 -.00001025  00000+0 -36061-5 0  9990
2 60306  53.1586 197.3449 0001017 106.8556 253.2574 15.69709219115040
STARLINK-11223 [DTC]    
1 60307U 24133G   26204.41426606  .00001946  00000+0  20931-4 0  9990
2 60307  53.1581 196.9680 0001635 104.1728 255.9472 15.69702138115056
STARLINK-11192 [DTC]    
1 60308U 24133H   26204.29182174  .00004344  00000+0  40718-4 0  9996
2 60308  53.1579 197.6281 0001153  91.7046 268.4104 15.69697596115038
